NORAD_CAT_ID,OBJECT_NAME,OBJECT_TYPE,EPOCH,MEAN_MOTION,ECCENTRICITY,INCLINATION,RA_OF_ASC_NODE,ARG_OF_PERICENTER,MEAN_ANOMALY,BSTAR,MEAN_MOTION_DOT,MEAN_MOTION_DDOT,TLE_LINE0,TLE_LINE1,TLE_LINE2,SEMIMAJOR_AXIS,PERIOD,APOGEE,PERIGEE,DECAYED
53173.0,STARLINK-4300,PAYLOAD,2024-07-29 12:27:57,15.0884095,0.000161,53.2157,259.5101,86.0713,274.0463,0.00016973,2.414e-05,0.0,0 STARLINK-4300,1 53173U 22083AT  24211.51941514  .00002414  00000-0  16973-3 0  9994,2 53173  53.2157 259.5101 0001610  86.0713 274.0463 15.08840950113540,6917.877,95.437,540.856,538.629,0.0
53173.0,STARLINK-4300,PAYLOAD,2024-07-29 20:24:52,15.088459,0.0001773,53.2163,258.0234,82.4013,277.718,0.00019475,2.813e-05,0.0,0 STARLINK-4300,1 53173U 22083AT  24211.85061311  .00002813  00000-0  19475-3 0  9992,2 53173  53.2163 258.0234 0001773  82.4013 277.7180 15.08845900112951,6917.862,95.437,540.954,538.501,0.0
53173.0,STARLINK-4300,PAYLOAD,2024-07-30 09:07:58,15.08843677,0.0001514,53.2141,255.6444,89.7499,270.3667,7.7309e-05,9.43e-06,0.0,0 STARLINK-4300,1 53173U 22083AT  24212.38053345  .00000943  00000-0  77309-4 0  9992,2 53173  53.2141 255.6444 0001514  89.7499 270.3667 15.08843677113032,6917.869,95.437,540.782,538.687,0.0
53173.0,STARLINK-4300,PAYLOAD,2024-07-30 20:15:39,15.08847196,0.0001523,53.2154,253.5623,95.2016,264.915,0.00017239,2.457e-05,0.0,0 STARLINK-4300,1 53173U 22083AT  24212.84421180  .00002457  00000-0  17239-3 0  9996,2 53173  53.2154 253.5623 0001523  95.2016 264.9150 15.08847196113743,6917.858,95.437,540.777,538.67,0.0
53173.0,STARLINK-4300,PAYLOAD,2024-07-31 08:58:45,15.08838129,0.0001821,53.2177,251.1802,102.8501,257.2694,3.1774e-05,2.18e-06,0.0,0 STARLINK-4300,1 53173U 22083AT  24213.37413751  .00000218  00000-0  31774-4 0  9994,2 53173  53.2177 251.1802 0001821 102.8501 257.2694 15.08838129113829,6917.886,95.438,541.011,538.491,0.0
53173.0,STARLINK-4300,PAYLOAD,2024-07-31 20:06:27,15.08841685,0.0001732,53.2187,249.0988,103.4924,256.6261,3.4203e-05,2.56e-06,0.0,0 STARLINK-4300,1 53173U 22083AT  24213.83781776  .00000256  00000-0  34203-4 0  9992,2 53173  53.2187 249.0988 0001732 103.4924 256.6261 15.08841685113259,6917.875,95.437,540.938,538.542,0.0
53173.0,STARLINK-4300,PAYLOAD,2024-08-01 12:00:18,15.08850013,0.0001626,53.2159,246.1276,99.3034,260.8142,0.00021958,3.209e-05,0.0,0 STARLINK-4300,1 53173U 22083AT  24214.50021144  .00003209  00000-0  21958-3 0  9996,2 53173  53.2159 246.1276 0001626  99.3034 260.8142 15.08850013113994,6917.85,95.437,540.84,538.59,0.0
53173.0,STARLINK-4300,PAYLOAD,2024-08-02 08:40:19,15.08833768,0.0001213,53.215,242.2628,93.214,266.8991,7.5904e-05,9.2e-06,0.0,0 STARLINK-4300,1 53173U 22083AT  24215.36134021  .00000920  00000-0  75904-4 0  9998,2 53173  53.2150 242.2628 0001213  93.2140 266.8991 15.08833768114128,6917.899,95.438,540.604,538.925,0.0
53173.0,STARLINK-4300,PAYLOAD,2024-08-03 11:41:52,15.08845498,0.0001185,53.2153,237.2084,92.4591,267.6537,2.7508e-05,1.5e-06,0.0,0 STARLINK-4300,1 53173U 22083AT  24216.48741710  .00000150  00000-0  27508-4 0  9993,2 53173  53.2153 237.2084 0001185  92.4591 267.6537 15.08845498114296,6917.864,95.437,540.548,538.909,0.0
53173.0,STARLINK-4300,PAYLOAD,2024-08-03 18:03:25,15.0884967,0.0001209,53.2157,236.0193,93.0878,267.0252,3.9813e-05,3.46e-06,0.0,0 STARLINK-4300,1 53173U 22083AT  24216.75237323  .00000346  00000-0  39813-4 0  9992,2 53173  53.2157 236.0193 0001209  93.0878 267.0252 15.08849670113697,6917.851,95.437,540.552,538.879,0.0
53173.0,STARLINK-4300,PAYLOAD,2024-08-04 05:11:07,15.08834461,0.0001204,53.2161,233.9383,96.4454,263.6675,0.00017436,2.488e-05,0.0,0 STARLINK-4300,1 53173U 22083AT  24217.21606123  .00002488  00000-0  17436-3 0  9997,2 53173  53.2161 233.9383 0001204  96.4454 263.6675 15.08834461114404,6917.897,95.438,540.595,538.929,0.0
53173.0,STARLINK-4300,PAYLOAD,2024-08-04 08:21:53,15.08838177,0.0001226,53.2149,233.3438,95.1633,264.9499,0.00018152,2.602e-05,0.0,0 STARLINK-4300,1 53173U 22083AT  24217.34854064  .00002602  00000-0  18152-3 0  9994,2 53173  53.2149 233.3438 0001226  95.1633 264.9499 15.08838177113780,6917.886,95.438,540.599,538.903,0.0
53173.0,STARLINK-4300,PAYLOAD,2024-08-05 05:01:54,15.08847148,0.0001206,53.2152,229.4774,94.1399,265.9731,8.8499e-05,1.121e-05,0.0,0 STARLINK-4300,1 53173U 22083AT  24218.20965464  .00001121  00000-0  88499-4 0  9994,2 53173  53.2152 229.4774 0001206  94.1399 265.9731 15.08847148114553,6917.859,95.437,540.558,538.889,0.0
53173.0,STARLINK-4300,PAYLOAD,2024-08-05 17:44:58,15.08852676,0.0001111,53.2138,227.0966,77.1656,282.946,0.00016011,2.262e-05,0.0,0 STARLINK-4300,1 53173U 22083AT  24218.73956889  .00002262  00000-0  16011-3 0  9990,2 53173  53.2138 227.0966 0001111  77.1656 282.9460 15.08852676113993,6917.842,95.437,540.475,538.938,0.0
53173.0,STARLINK-4300,PAYLOAD,2024-08-06 04:52:42,15.08825453,0.0001206,53.2141,225.0155,87.9557,272.1573,-0.00017089,-3.005e-05,0.0,0 STARLINK-4300,1 53173U 22083AT  24219.20326439 -.00003005  00000-0 -17089-3 0  9999,2 53173  53.2141 225.0155 0001206  87.9557 272.1573 15.08825453114708,6917.925,95.438,540.624,538.956,0.0
53173.0,STARLINK-4300,PAYLOAD,2024-08-06 09:38:51,15.08821231,0.0001163,53.2143,224.1234,87.1666,272.9459,-0.00025045,-4.269e-05,0.0,0 STARLINK-4300,1 53173U 22083AT  24219.40198819 -.00004269  00000-0 -25045-3 0  9994,2 53173  53.2143 224.1234 0001163  87.1666 272.9459 15.08821231114096,6917.938,95.439,540.607,538.998,0.0
53173.0,STARLINK-4300,PAYLOAD,2024-08-06 17:35:47,15.08821214,0.0001093,53.2142,222.6368,94.2517,265.86,-0.00020443,-3.538e-05,0.0,0 STARLINK-4300,1 53173U 22083AT  24219.73319131 -.00003538  00000-0 -20443-3 0  9997,2 53173  53.2142 222.6368 0001093  94.2517 265.8600 15.08821214114148,6917.938,95.439,540.559,539.047,0.0
53173.0,STARLINK-4300,PAYLOAD,2024-08-07 07:54:16,15.08833455,0.0001258,53.2146,219.9606,85.5934,274.5202,8.5485e-05,1.073e-05,0.0,0 STARLINK-4300,1 53173U 22083AT  24220.32935195  .00001073  00000-0  85485-4 0  9996,2 53173  53.2146 219.9606 0001258  85.5934 274.5202 15.08833455114870,6917.9,95.438,540.636,538.895,0.0
53173.0,STARLINK-4300,PAYLOAD,2024-08-08 09:20:26,15.08855577,0.000127,53.2142,215.2017,90.1958,269.918,0.00074151,0.00011538,0.0,0 STARLINK-4300,1 53173U 22083AT  24221.38919162  .00011538  00000-0  74151-3 0  9993,2 53173  53.2142 215.2017 0001270  90.1958 269.9180 15.08855577114392,6917.833,95.437,540.576,538.819,0.0
53173.0,STARLINK-4300,PAYLOAD,2024-08-09 04:25:03,15.08861278,0.0001315,53.2147,211.6304,99.4371,260.677,0.0004137,6.306e-05,0.0,0 STARLINK-4300,1 53173U 22083AT  24222.18406252  .00006306  00000-0  41370-3 0  9997,2 53173  53.2147 211.6304 0001315  99.4371 260.6770 15.08861278115150,6917.815,95.436,540.59,538.771,0.0
53173.0,STARLINK-4300,PAYLOAD,2024-08-09 09:11:12,15.08861362,0.0001286,53.2146,210.7395,100.271,259.8427,0.00034925,5.278e-05,0.0,0 STARLINK-4300,1 53173U 22083AT  24222.38278023  .00005278  00000-0  34925-3 0  9997,2 53173  53.2146 210.7395 0001286 100.2710 259.8427 15.08861362114549,6917.815,95.436,540.57,538.79,0.0
53173.0,STARLINK-4300,PAYLOAD,2024-08-10 04:15:49,15.08842042,0.0001467,53.2158,207.1697,103.631,256.4845,-0.00014643,-2.618e-05,0.0,0 STARLINK-4300,1 53173U 22083AT  24223.17766105 -.00002618  00000-0 -14643-3 0  9990,2 53173  53.2158 207.1697 0001467 103.6310 256.4845 15.08842042115307,6917.874,95.437,540.754,538.724,0.0
53173.0,STARLINK-4300,PAYLOAD,2024-08-10 21:45:04,15.0884195,0.0001393,53.2163,203.899,105.0243,255.0904,-5.023e-05,-1.087e-05,0.0,0 STARLINK-4300,1 53173U 22083AT  24223.90630527 -.00001087  00000-0 -50230-4 0  9991,2 53173  53.2163 203.8990 0001393 105.0243 255.0904 15.08841950114779,6917.874,95.437,540.703,538.776,0.0
53173.0,STARLINK-4300,PAYLOAD,2024-08-11 05:42:00,15.08844564,0.0001293,53.216,202.4141,93.1592,266.9548,-8.0741e-07,-3.01e-06,0.0,0 STARLINK-4300,1 53173U 22083AT  24224.23750271 -.00000301  00000-0 -80741-6 0  9997,2 53173  53.2160 202.4141 0001293  93.1592 266.9548 15.08844564115468,6917.866,95.437,540.626,538.837,0.0
53173.0,STARLINK-4300,PAYLOAD,2024-08-11 15:14:17,15.08856831,0.0001316,53.2166,200.6292,93.1706,266.9437,0.00013471,1.858e-05,0.0,0 STARLINK-4300,1 53173U 22083AT  24224.63492961  .00001858  00000-0  13471-3 0  9999,2 53173  53.2166 200.6292 0001316  93.1706 266.9437 15.08856831115528,6917.829,95.436,540.604,538.784,0.0
53173.0,STARLINK-4300,PAYLOAD,2024-08-11 23:11:14,15.08841814,0.0002103,53.2164,199.1437,86.5186,273.6047,0.00016986,2.416e-05,0.0,0 STARLINK-4300,1 53173U 22083AT  24224.96614068  .00002416  00000-0  16986-3 0  9994,2 53173  53.2164 199.1437 0002103  86.5186 273.6047 15.08841814114933,6917.875,95.437,541.195,538.285,0.0
53173.0,STARLINK-4300,PAYLOAD,2024-08-12 05:32:46,15.08845476,0.0001196,53.2162,197.9538,83.6291,276.4837,0.00018983,2.735e-05,0.0,0 STARLINK-4300,1 53173U 22083AT  24225.23109643  .00002735  00000-0  18983-3 0  9996,2 53173  53.2162 197.9538 0001196  83.6291 276.4837 15.08845476115617,6917.864,95.437,540.556,538.901,0.0
53173.0,STARLINK-4300,PAYLOAD,2024-08-12 08:43:33,15.08847435,0.0001596,53.2174,197.3631,92.7249,267.3926,0.00023599,3.471e-05,0.0,0 STARLINK-4300,1 53173U 22083AT  24225.36357829  .00003471  00000-0  23599-3 0  9998,2 53173  53.2174 197.3631 0001596  92.7249 267.3926 15.08847435114991,6917.858,95.437,540.827,538.619,0.0
53173.0,STARLINK-4300,PAYLOAD,2024-08-12 15:05:04,15.08873327,0.0002005,53.2168,196.1732,82.1853,277.9366,0.00057062,8.813e-05,0.0,0 STARLINK-4300,1 53173U 22083AT  24225.62852425  .00008813  00000-0  57062-3 0  9996,2 53173  53.2168 196.1732 0002005  82.1853 277.9366 15.08873327115673,6917.779,95.435,541.031,538.257,0.0
53173.0,STARLINK-4300,PAYLOAD,2024-08-12 21:26:37,15.08883307,0.0004544,53.216,194.9802,75.9796,284.1701,0.00082881,0.00012944,0.0,0 STARLINK-4300,1 53173U 22083AT  24225.89348954  .00012944  00000-0  82881-3 0  9999,2 53173  53.2160 194.9802 0004544  75.9796 284.1701 15.08883307115071,6917.748,95.435,542.756,536.47,0.0
